HAWK-10B                
1 60545U 24149CF  24255.17709472  .00005259  00000+0  52055-3 0  9995
2 60545  97.7462 330.2486 0007051  86.6980 273.5045 14.92262642  3774
ICEYE-X39               
1 60546U 24149CG  24255.50684237  .00011224  00000+0  10886-2 0  9998
2 60546  97.7422 330.5719 0006430  75.7253 284.4680 14.92819035  3821
UMBRA-10                
1 60547U 24149CH  24255.50250524  .00023808  00000+0  22655-2 0  9995
2 60547  97.7462 330.5904 0005531  79.5276 280.6566 14.93402610  3830
ICEYE-X33               
1 60548U 24149CJ  24254.90148935  .00015066  00000+0  14527-2 0  9997
2 60548  97.7455 329.9921 0006513  82.4930 277.7029 14.92978580  3738
ICEYE-X40               
1 60549U 24149CK  24255.16970909  .00012940  00000+0  12504-2 0  9992
2 60549  97.7435 330.2497 0006820  79.6586 280.5402 14.92925913  3779
SATELIOT_1              
1 60550U 24149CL  24255.49864368  .00008170  00000+0  78605-3 0  9996
2 60550  97.7383 330.5718 0008885  72.9938 287.2254 14.93216243  3827
BRO-14                  
1 60551U 24149CM  24255.49802664  .00009826  00000+0  94314-3 0  9992
2 60551  97.7500 330.6087 0008760  87.5401 272.6822 14.93256389  3822
SATELIOT_3              
1 60552U 24149CN  24255.15985961  .00010100  00000+0  96513-3 0  9998
2 60552  97.7447 330.2674 0009783  82.7385 277.4947 14.93416865  3777
BRO-15                  
1 60553U 24149CP  24255.49377964  .00010185  00000+0  97125-3 0  9997
2 60553  97.7428 330.5927 0009899  79.2719 280.9615 14.93494162  3824
2024-149CQ              
1 60554U 24149CQ  24255.49270353  .00011388  00000+0  10813-2 0  9996
2 60554  97.7395 330.5848 0010049  72.9697 287.2623 14.93634891  3828
2024-149CR              
1 60555U 24149CR  24255.49114285  .00011668  00000+0  11049-2 0  9991
2 60555  97.7458 330.6060 0010341  80.3967 279.8421 14.93734751  3823
STARLINK-31844          
1 60583U 24150A   24255.50001157 -.00865250  00000+0 -23004-1 0  9998
2 60583  53.1594 317.9130 0001037  57.0875 127.5456 15.40198083  4685
STARLINK-32204          
1 60584U 24150B   24254.91667824 -.00016129  00000+0 -28245-3 0  9999
2 60584  53.1589 320.6400 0001187  87.3749 112.5908 15.49317631  4589
STARLINK-32130          
1 60585U 24150C   24254.91667824 -.00070222  00000+0 -12642-2 0  9997
2 60585  53.1588 320.6365 0001261  59.6444 142.2251 15.49346168  4427
STARLINK-32173          
1 60586U 24150D   24255.50001157 -.00021918  00000+0 -38663-3 0  9995
2 60586  53.1590 317.8436 0001617  66.3944 152.7683 15.49343052  4685
STARLINK-31911          
1 60587U 24150E   24255.50001157 -.00004511  00000+0 -73042-4 0  9997
2 60587  53.1592 317.8393 0001697  76.4659 144.6268 15.49324669  4562
STARLINK-31994          
1 60588U 24150F   24255.50001157 -.00010934  00000+0 -18865-3 0  9995
2 60588  53.1590 317.8351 0001247  77.4476 145.5568 15.49332774  4563
STARLINK-32169          
1 60589U 24150G   24255.50001157 -.02162352  00000+0 -55104-1 0  9995
2 60589  53.1594 317.8646 0001505  79.9781 128.7143 15.42798040  4688
STARLINK-32209          
1 60590U 24150H   24255.50001157  .00046048  00000+0  83115-3 0  9991
2 60590  53.1592 317.8273 0001490  69.2920 157.5465 15.49307820  4680
STARLINK-32170          
1 60591U 24150J   24255.50001157 -.02164296  00000+0 -49834-1 0  9990
2 60591  53.1594 317.8343 0001464  85.0790 138.8564 15.45757866  4556
STARLINK-31497          
1 60592U 24150K   24255.50001157  .00000759  00000+0  21688-4 0  9990
2 60592  53.1592 317.8203 0001418  78.7366 151.9327 15.49329206  4670
STARLINK-32161          
1 60593U 24150L   24255.50001157 -.00006558  00000+0 -10983-3 0  9991
2 60593  53.1592 317.8171 0001444  76.5573 156.0239 15.49335933  4638
STARLINK-32210          
1 60594U 24150M   24255.50001157 -.00018030  00000+0 -31649-3 0  9992
2 60594  53.1592 317.8136 0001462  67.9676 166.5302 15.49341657  4679
STARLINK-32202          
1 60595U 24150N   24255.50001157 -.00001993  00000+0 -27770-4 0  9994
2 60595  53.1592 317.8088 0001443  56.0950 180.3339 15.49321944  4681
STARLINK-31930          
1 60596U 24150P   24255.50001157  .00005640  00000+0  10931-3 0  9996
2 60596  53.1591 317.8045 0001461  73.3037 165.0258 15.49331145  4529
STARLINK-32162          
1 60597U 24150Q   24255.58334491 -.02135606  00000+0 -52964-1 0  9995
2 60597  53.1597 317.4284 0001159  82.6978 249.9834 15.43550560  4696
STARLINK-32208          
1 60598U 24150R   24255.50001157 -.00256559  00000+0 -65882-2 0  9991
2 60598  53.1595 317.8601 0001340  76.5107 134.1083 15.39774530  4680
STARLINK-32165          
1 60599U 24150S   24255.08334491 -.02222932  00000+0 -45978-1 0  9998
2 60599  53.1590 319.7829 0000746 133.5315 305.2126 15.48926405  4615
STARLINK-31923          
1 60600U 24150T   24255.50001157 -.01342740  00000+0 -26359-1 0  9999
2 60600  53.1592 317.7886 0001083  73.1270 172.8031 15.49778632  4683
STARLINK-31988          
1 60601U 24150U   24255.50001157 -.00015466  00000+0 -27034-3 0  9994
2 60601  53.1591 317.7862 0001318  95.9673 151.9547 15.49332098  4566
STARLINK-31983          
1 60602U 24150V   24255.25001157  .00022858  00000+0  41761-3 0  9991
2 60602  53.1592 318.9744 0001388  94.6501 199.9908 15.49324268  4511
STARLINK-31874          
1 60603U 24150W   24255.50001157 -.00011183  00000+0 -19313-3 0  9999
2 60603  53.1592 317.7759 0001467  74.8658 176.8882 15.49331375  4675
STARLINK-32039          
1 60604U 24150X   24255.50001157 -.01317135  00000+0 -29949-1 0  9991
2 60604  53.1598 317.7848 0001098  85.9653 161.9044 15.45530391  4679
ZHONGXING-4A            
1 60606U 24151A   24254.87536375 -.00000357  00000+0  00000+0 0  9996
2 60606   2.9889 278.2587 0000721 315.6991 189.7496  1.00277838   289
CZ-7A R/B               
1 60607U 24151B   24247.17828704  .00829450  16382-5  18628-2 0  9998
2 60607  14.6957 176.6447 7136648 176.6235 201.0779  2.53358494   181
STARLINK-11247 [DTC]    
1 60720U 24152A   24255.58334491 -.01024142  00000+0 -57454-2 0  9996
2 60720  53.1513 279.0356 0001152  68.8654 149.3176 15.81214104  3385
STARLINK-11259 [DTC]    
1 60721U 24152B   24255.54243856 -.00391314  00000+0 -19419-2 0  9993
2 60721  53.1514 279.2084 0000997  30.2453 329.8628 15.82243292  3224
STARLINK-11188 [DTC]    
1 60722U 24152C   24255.53982028 -.00329452  00000+0 -15713-2 0  9991
2 60722  53.1511 279.1907 0000865 153.0645 207.0423 15.82929602  3480
STARLINK-11272 [DTC]    
1 60723U 24152D   24255.53498614  .00017794  00000+0  81675-4 0  9998
2 60723  53.1513 279.1584 0000875  42.1827 317.9264 15.83802876  3382
STARLINK-11261 [DTC]    
1 60724U 24152E   24255.53742408 -.00158468  00000+0 -71889-3 0  9993
2 60724  53.1512 279.1755 0000742 107.5218 252.5887 15.83526438  3376
STARLINK-11263 [DTC]    
1 60725U 24152F   24255.58334491 -.00308011  00000+0 -14054-2 0  9999
2 60725  53.1505 278.8878 0001245  75.4753 214.2666 15.83806018  3383
STARLINK-11235 [DTC]    
1 60726U 24152G   24255.25001157  .00192404  00000+0  84163-3 0  9998
2 60726  53.1509 280.5369 0000912 108.1916  93.3507 15.83623380  3444
STARLINK-11080 [DTC]    
1 60727U 24152H   24255.58334491  .00005649  00000+0  28137-4 0  9999
2 60727  53.1503 278.8312 0001321  83.4409 233.7011 15.83833124  3500
STARLINK-11249 [DTC]    
1 60728U 24152J   24254.91667824  .00036528  00000+0  16422-3 0  9998
2 60728  53.1510 282.1560 0000717 107.1392  20.8435 15.83762576  3287
STARLINK-11146 [DTC]    
1 60729U 24152K   24255.25001157  .00058056  00000+0  25847-3 0  9999
2 60729  53.1512 280.4500 0000886  64.4874 179.3291 15.83762308  3443
STARLINK-11255 [DTC]    
1 60730U 24152L   24254.91667824 -.00443275  00000+0 -19742-2 0  9991
2 60730  53.1508 282.1007 0000718 112.7501  41.9671 15.84646718  3284
STARLINK-11254 [DTC]    
1 60731U 24152M   24255.58334491 -.00443439  00000+0 -19891-2 0  9994
2 60731  53.1497 278.7161 0000898  54.7740 318.0535 15.84497683  3386
STARLINK-11266 [DTC]    
1 60732U 24152N   24255.08334491 -.00434994  00000+0 -18647-2 0  9994
2 60732  53.1508 281.2090 0000695  87.0188 323.9603 15.85416646  3304
STARLINK-32253          
1 60733U 24152P   24255.58334491 -.00783040  00000+0 -53553-2 0  9994
2 60733  53.1505 279.0393 0000818  60.8658 155.2246 15.76231204  3440
STARLINK-32179          
1 60734U 24152Q   24255.25001157 -.00819506  00000+0 -54632-2 0  9995
2 60734  53.1509 280.7038 0000809  75.6957  44.9149 15.76903060  3347
STARLINK-32272          
1 60735U 24152R   24255.58334491 -.00790491  00000+0 -54242-2 0  9990
2 60735  53.1502 279.0339 0000732  72.3419 146.0083 15.76177375  3453
STARLINK-32280          
1 60736U 24152S   24255.58334491 -.00800663  00000+0 -55237-2 0  9999
2 60736  53.1503 279.0291 0000893  65.6518 155.1702 15.76082138  3456
STARLINK-32289          
1 60737U 24152T   24255.58334491 -.00813615  00000+0 -56494-2 0  9997
2 60737  53.1499 279.0235 0000802  65.9432 157.3955 15.75972414  3488
STARLINK-32304          
1 60738U 24152U   24255.25001157 -.00869957  00000+0 -59379-2 0  9997
2 60738  53.1504 280.6771 0001062  94.1851  39.0162 15.76509050  3431
STARLINK-32235          
1 60739U 24152V   24255.50001157 -.00811876  00000+0 -56644-2 0  9995
2 60739  53.1504 279.4278 0000938  56.5187  58.8385 15.75858485  3428
STARLINK-32315          
1 60740U 24152W   24255.58334491 -.00855360  00000+0 -60708-2 0  9997
2 60740  53.1500 279.0079 0000868  60.0913 170.7507 15.75590843  3397
2024-153A               
1 60745U 24153A   24255.52498478  .00018083  00000+0  11208-2 0  9995
2 60745  97.6164  12.9748 0015728 238.2244 121.7453 15.09706463  2013
2024-153B               
1 60746U 24153B   24255.52275233  .00023198  00000+0  14228-2 0  9996
2 60746  97.6166  12.9782 0015703 241.5581 118.4066 15.10035915  2010
2024-153C               
1 60747U 24153C   24255.52256344  .00024363  00000+0  14917-2 0  9999
2 60747  97.6163  12.9782 0016419 241.1770 118.7811 15.10078011  2014
2024-153D               
1 60748U 24153D   24255.52198034  .00026656  00000+0  16273-2 0  9995
2 60748  97.6197  12.9852 0015774 242.0365 117.9268 15.10174257  2019
